CCSDS_OMM_VERS = 2.0
CREATION_DATE  = 
ORIGINATOR     = 

OBJECT_NAME    = STARLINK-35472
OBJECT_ID      = 2025-225D
CENTER_NAME    = EARTH
REF_FRAME      = TEME
TIME_SYSTEM    = UTC
MEAN_ELEMENT_THEORY = SGP/SGP4

EPOCH          = 2025-10-26T20:28:32.298240
MEAN_MOTION    = 15.74302444
ECCENTRICITY   = .0000835
INCLINATION    = 53.1604
RA_OF_ASC_NODE = 71.1544
ARG_OF_PERICENTER = 99.0302
MEAN_ANOMALY   = 261.0812

EPHEMERIS_TYPE = 0
CLASSIFICATION_TYPE = U
NORAD_CAT_ID   = 65913
ELEMENT_SET_NO = 999
REV_AT_EPOCH   = 386
BSTAR          = .19174795E-2
MEAN_MOTION_DOT = .291556E-2
MEAN_MOTION_DDOT = 0

CCSDS_OMM_VERS = 2.0
CREATION_DATE  = 
ORIGINATOR     = 

OBJECT_NAME    = STARLINK-35524
OBJECT_ID      = 2025-225E
CENTER_NAME    = EARTH
REF_FRAME      = TEME
TIME_SYSTEM    = UTC
MEAN_ELEMENT_THEORY = SGP/SGP4

EPOCH          = 2025-10-26T20:28:03.368928
MEAN_MOTION    = 15.74275087
ECCENTRICITY   = .00013742
INCLINATION    = 53.1602
RA_OF_ASC_NODE = 71.1531
ARG_OF_PERICENTER = 54.5694
MEAN_ANOMALY   = 305.5454

EPHEMERIS_TYPE = 0
CLASSIFICATION_TYPE = U
NORAD_CAT_ID   = 65914
ELEMENT_SET_NO = 999
REV_AT_EPOCH   = 386
BSTAR          = .1706508E-2
MEAN_MOTION_DOT = .258055E-2
MEAN_MOTION_DDOT = 0

CCSDS_OMM_VERS = 2.0
CREATION_DATE  = 
ORIGINATOR     = 

OBJECT_NAME    = STARLINK-35539
OBJECT_ID      = 2025-225F
CENTER_NAME    = EARTH
REF_FRAME      = TEME
TIME_SYSTEM    = UTC
MEAN_ELEMENT_THEORY = SGP/SGP4

EPOCH          = 2025-10-26T22:00:03.000096
MEAN_MOTION    = 15.68043336
ECCENTRICITY   = .00007972
INCLINATION    = 53.1595
RA_OF_ASC_NODE = 70.8592
ARG_OF_PERICENTER = 65.8215
MEAN_ANOMALY   = 285.7408

EPHEMERIS_TYPE = 0
CLASSIFICATION_TYPE = U
NORAD_CAT_ID   = 65915
ELEMENT_SET_NO = 999
REV_AT_EPOCH   = 385
BSTAR          = -.25039288E-1
MEAN_MOTION_DOT = -.2477242E-1
MEAN_MOTION_DDOT = 0

CCSDS_OMM_VERS = 2.0
CREATION_DATE  = 
ORIGINATOR     = 

OBJECT_NAME    = STARLINK-35521
OBJECT_ID      = 2025-225G
CENTER_NAME    = EARTH
REF_FRAME      = TEME
TIME_SYSTEM    = UTC
MEAN_ELEMENT_THEORY = SGP/SGP4

EPOCH          = 2025-10-26T21:58:30.216000
MEAN_MOTION    = 15.74266211
ECCENTRICITY   = .000119
INCLINATION    = 53.1610
RA_OF_ASC_NODE = 70.8320
ARG_OF_PERICENTER = 60.4941
MEAN_ANOMALY   = 299.6198

EPHEMERIS_TYPE = 0
CLASSIFICATION_TYPE = U
NORAD_CAT_ID   = 65916
ELEMENT_SET_NO = 999
REV_AT_EPOCH   = 387
BSTAR          = .13563048E-2
MEAN_MOTION_DOT = .203554E-2
MEAN_MOTION_DDOT = 0

CCSDS_OMM_VERS = 2.0
CREATION_DATE  = 
ORIGINATOR     = 

OBJECT_NAME    = STARLINK-35478
OBJECT_ID      = 2025-225H
CENTER_NAME    = EARTH
REF_FRAME      = TEME
TIME_SYSTEM    = UTC
MEAN_ELEMENT_THEORY = SGP/SGP4

EPOCH          = 2025-10-26T21:57:31.544352
MEAN_MOTION    = 15.74181237
ECCENTRICITY   = .00011507
INCLINATION    = 53.1606
RA_OF_ASC_NODE = 70.8271
ARG_OF_PERICENTER = 70.7616
MEAN_ANOMALY   = 289.3528

EPHEMERIS_TYPE = 0
CLASSIFICATION_TYPE = U
NORAD_CAT_ID   = 65917
ELEMENT_SET_NO = 999
REV_AT_EPOCH   = 387
BSTAR          = .14088235E-2
MEAN_MOTION_DOT = .21087E-2
MEAN_MOTION_DDOT = 0

CCSDS_OMM_VERS = 2.0
CREATION_DATE  = 
ORIGINATOR     = 

OBJECT_NAME    = STARLINK-35516
OBJECT_ID      = 2025-225J
CENTER_NAME    = EARTH
REF_FRAME      = TEME
TIME_SYSTEM    = UTC
MEAN_ELEMENT_THEORY = SGP/SGP4

EPOCH          = 2025-10-26T20:26:35.658240
MEAN_MOTION    = 15.74294627
ECCENTRICITY   = .00016031
INCLINATION    = 53.1599
RA_OF_ASC_NODE = 71.1453
ARG_OF_PERICENTER = 54.3001
MEAN_ANOMALY   = 305.8168

EPHEMERIS_TYPE = 0
CLASSIFICATION_TYPE = U
NORAD_CAT_ID   = 65918
ELEMENT_SET_NO = 999
REV_AT_EPOCH   = 386
BSTAR          = .1882069E-2
MEAN_MOTION_DOT = .285861E-2
MEAN_MOTION_DDOT = 0

CCSDS_OMM_VERS = 2.0
CREATION_DATE  = 
ORIGINATOR     = 

OBJECT_NAME    = STARLINK-35519
OBJECT_ID      = 2025-225K
CENTER_NAME    = EARTH
REF_FRAME      = TEME
TIME_SYSTEM    = UTC
MEAN_ELEMENT_THEORY = SGP/SGP4

EPOCH          = 2025-10-26T20:25:37.108416
MEAN_MOTION    = 15.74286403
ECCENTRICITY   = .00009548
INCLINATION    = 53.1602
RA_OF_ASC_NODE = 71.1412
ARG_OF_PERICENTER = 63.2573
MEAN_ANOMALY   = 296.8545

EPHEMERIS_TYPE = 0
CLASSIFICATION_TYPE = U
NORAD_CAT_ID   = 65919
ELEMENT_SET_NO = 999
REV_AT_EPOCH   = 386
BSTAR          = .16440566E-2
MEAN_MOTION_DOT = .248425E-2
MEAN_MOTION_DDOT = 0

CCSDS_OMM_VERS = 2.0
CREATION_DATE  = 
ORIGINATOR     = 

OBJECT_NAME    = STARLINK-33902
OBJECT_ID      = 2025-225L
CENTER_NAME    = EARTH
REF_FRAME      = TEME
TIME_SYSTEM    = UTC
MEAN_ELEMENT_THEORY = SGP/SGP4

EPOCH          = 2025-10-26T20:25:07.864608
MEAN_MOTION    = 15.74284849
ECCENTRICITY   = .0000925
INCLINATION    = 53.1602
RA_OF_ASC_NODE = 71.1374
ARG_OF_PERICENTER = 73.4374
MEAN_ANOMALY   = 286.6748

EPHEMERIS_TYPE = 0
CLASSIFICATION_TYPE = U
NORAD_CAT_ID   = 65920
ELEMENT_SET_NO = 999
REV_AT_EPOCH   = 386
BSTAR          = .16461332E-2
MEAN_MOTION_DOT = .248732E-2
MEAN_MOTION_DDOT = 0

CCSDS_OMM_VERS = 2.0
CREATION_DATE  = 
ORIGINATOR     = 

OBJECT_NAME    = STARLINK-35530
OBJECT_ID      = 2025-225M
CENTER_NAME    = EARTH
REF_FRAME      = TEME
TIME_SYSTEM    = UTC
MEAN_ELEMENT_THEORY = SGP/SGP4

EPOCH          = 2025-10-26T20:24:38.746944
MEAN_MOTION    = 15.74270234
ECCENTRICITY   = .00009951
INCLINATION    = 53.1601
RA_OF_ASC_NODE = 71.1366
ARG_OF_PERICENTER = 51.3726
MEAN_ANOMALY   = 308.7383

EPHEMERIS_TYPE = 0
CLASSIFICATION_TYPE = U
NORAD_CAT_ID   = 65921
ELEMENT_SET_NO = 999
REV_AT_EPOCH   = 386
BSTAR          = .14772808E-2
MEAN_MOTION_DOT = .222305E-2
MEAN_MOTION_DDOT = 0

CCSDS_OMM_VERS = 2.0
CREATION_DATE  = 
ORIGINATOR     = 

OBJECT_NAME    = STARLINK-35544
OBJECT_ID      = 2025-225N
CENTER_NAME    = EARTH
REF_FRAME      = TEME
TIME_SYSTEM    = UTC
MEAN_ELEMENT_THEORY = SGP/SGP4

EPOCH          = 2025-10-26T20:24:09.557568
MEAN_MOTION    = 15.74270241
ECCENTRICITY   = .00009653
INCLINATION    = 53.1605
RA_OF_ASC_NODE = 71.1335
ARG_OF_PERICENTER = 65.5731
MEAN_ANOMALY   = 294.5389

EPHEMERIS_TYPE = 0
CLASSIFICATION_TYPE = U
NORAD_CAT_ID   = 65922
ELEMENT_SET_NO = 999
REV_AT_EPOCH   = 386
BSTAR          = .14552975E-2
MEAN_MOTION_DOT = .218898E-2
MEAN_MOTION_DDOT = 0

CCSDS_OMM_VERS = 2.0
CREATION_DATE  = 
ORIGINATOR     = 

OBJECT_NAME    = STARLINK-35484
OBJECT_ID      = 2025-225P
CENTER_NAME    = EARTH
REF_FRAME      = TEME
TIME_SYSTEM    = UTC
MEAN_ELEMENT_THEORY = SGP/SGP4

EPOCH          = 2025-10-26T20:23:40.319808
MEAN_MOTION    = 15.74270970
ECCENTRICITY   = .00006156
INCLINATION    = 53.1602
RA_OF_ASC_NODE = 71.1317
ARG_OF_PERICENTER = 109.5136
MEAN_ANOMALY   = 250.5951

EPHEMERIS_TYPE = 0
CLASSIFICATION_TYPE = U
NORAD_CAT_ID   = 65923
ELEMENT_SET_NO = 999
REV_AT_EPOCH   = 386
BSTAR          = .14422931E-2
MEAN_MOTION_DOT = .216894E-2
MEAN_MOTION_DDOT = 0

CCSDS_OMM_VERS = 2.0
CREATION_DATE  = 
ORIGINATOR     = 

OBJECT_NAME    = STARLINK-34994
OBJECT_ID      = 2025-225Q
CENTER_NAME    = EARTH
REF_FRAME      = TEME
TIME_SYSTEM    = UTC
MEAN_ELEMENT_THEORY = SGP/SGP4

EPOCH          = 2025-10-26T23:26:02.122080
MEAN_MOTION    = 15.74258261
ECCENTRICITY   = .00012352
INCLINATION    = 53.1601
RA_OF_ASC_NODE = 70.4998
ARG_OF_PERICENTER = 41.1198
MEAN_ANOMALY   = 318.9915

EPHEMERIS_TYPE = 0
CLASSIFICATION_TYPE = U
NORAD_CAT_ID   = 65924
ELEMENT_SET_NO = 999
REV_AT_EPOCH   = 388
BSTAR          = .13298853E-2
MEAN_MOTION_DOT = .199409E-2
MEAN_MOTION_DDOT = 0

