STARLINK-35472          
1 65913U 25225D   25299.85315160  .00291556  00000+0  19175-2 0  9998
2 65913  53.1604  71.1544 0000835  99.0302 261.0812 15.74302444  3867
STARLINK-35524          
1 65914U 25225E   25299.85281677  .00258055  00000+0  17065-2 0  9997
2 65914  53.1602  71.1531 0001374  54.5694 305.5454 15.74275087  3869
STARLINK-35539          
1 65915U 25225F   25299.91670139 -.02477242  00000+0 -25039-1 0  9994
2 65915  53.1595  70.8592 0000797  65.8215 285.7408 15.68043336  3856
STARLINK-35521          
1 65916U 25225G   25299.91562750  .00203554  00000+0  13563-2 0  9993
2 65916  53.1610  70.8320 0001190  60.4941 299.6198 15.74266211  3877
STARLINK-35478          
1 65917U 25225H   25299.91494843  .00210870  00000+0  14088-2 0  9993
2 65917  53.1606  70.8271 0001150  70.7616 289.3528 15.74181237  3874
STARLINK-35516          
1 65918U 25225J   25299.85180160  .00285861  00000+0  18821-2 0  9992
2 65918  53.1599  71.1453 0001603  54.3001 305.8168 15.74294627  3862
STARLINK-35519          
1 65919U 25225K   25299.85112394  .00248425  00000+0  16441-2 0  9998
2 65919  53.1602  71.1412 0000954  63.2573 296.8545 15.74286403  3865
STARLINK-33902          
1 65920U 25225L   25299.85078547  .00248732  00000+0  16461-2 0  9994
2 65920  53.1602  71.1374 0000925  73.4374 286.6748 15.74284849  3868
STARLINK-35530          
1 65921U 25225M   25299.85044846  .00222305  00000+0  14773-2 0  9992
2 65921  53.1601  71.1366 0000995  51.3726 308.7383 15.74270234  3866
STARLINK-35544          
1 65922U 25225N   25299.85011062  .00218898  00000+0  14553-2 0  9995
2 65922  53.1605  71.1335 0000965  65.5731 294.5389 15.74270241  3863
STARLINK-35484          
1 65923U 25225P   25299.84977222  .00216894  00000+0  14423-2 0  9994
2 65923  53.1602  71.1317 0000615 109.5136 250.5951 15.74270970  3867
STARLINK-34994          
1 65924U 25225Q   25299.97641345  .00199409  00000+0  13299-2 0  9995
2 65924  53.1601  70.4998 0001235  41.1198 318.9915 15.74258261  3882
